GSAT0220 (GALILEO 24)   
1 43567U 18060D   24349.50922187 -.00000085  00000+0  00000+0 0  9998
2 43567  57.2946 356.6145 0005915 279.8893  80.0740  1.70475433 39797
BEIDOU-3 M13            
1 43622U 18072A   24352.37920362 -.00000046  00000+0  00000+0 0  9992
2 43622  56.1451  80.7773 0006043 290.6810  69.2673  1.86230978 42476
BEIDOU-3 M14            
1 43623U 18072B   24352.78163074 -.00000044  00000+0  00000+0 0  9995
2 43623  56.1472  80.7574 0003317 320.1009  39.8897  1.86230970 42472
GPS BIII-1              
1 43873U 18109A   24352.81015660 -.00000001  00000+0  00000+0 0  9997
2 43873  55.3772 113.7695 0032406 193.3033 338.7303  2.00562597 44118
METEOR-M2 2             
1 44387U 19038A   24353.17516529  .00000337  00000+0  16645-3 0  9997
2 44387  98.8529 323.3760 0001915 122.1104 238.0261 14.24092303283575
GPS BIII-2              
1 44506U 19056A   24352.44338885 -.00000096  00000+0  00000+0 0  9993
2 44506  55.8229 352.8314 0048664 194.5427 336.6861  2.00558662 39108
BEIDOU-3 M24            
1 44542U 19061A   24352.08532376  .00000057  00000+0  00000+0 0  9996
2 44542  54.4236 201.1830 0009102  17.6848 342.4208  1.86229318 35603
BEIDOU-3 M23            
1 44543U 19061B   24352.47878698  .00000053  00000+0  00000+0 0  9996
2 44543  54.4221 201.1382 0005745  15.8968 160.6160  1.86229581 35612
BEIDOU-3 M22            
1 44793U 19078A   24352.46633948 -.00000090  00000+0  00000+0 0  9999
2 44793  54.4204 318.9872 0005915  12.7159 347.2850  1.86231964 34467
BEIDOU-3 M21            
1 44794U 19078B   24352.59566454 -.00000090  00000+0  00000+0 0  9991
2 44794  54.3938 318.9547 0004136 359.4605   0.5254  1.86232016 34478
ELEKTRO-L 3             
1 44903U 19095A   24353.11228436 -.00000092  00000+0  00000+0 0  9998
2 44903   0.0189 160.8747 0002301 123.4962 279.3150  1.00269868 18215
GPS BIII-3              
1 45854U 20041A   24352.23839736 -.00000072  00000+0  00000+0 0  9998
2 45854  56.2739  50.2502 0050220 197.5951 124.9703  2.00569380 33061
COSMOS 2547             
1 46805U 20075A   24352.72318037  .00000052  00000+0  00000+0 0  9999
2 46805  64.5958 210.7275 0005867 232.6090 127.4193  2.13102841 32266
GPS BIII-4              
1 46826U 20078A   24352.62186914  .00000021  00000+0  00000+0 0  9997
2 46826  54.1137 232.9579 0051569 198.3128  14.2770  2.00560048 30531
GSAT0223 (GALILEO 27)   
1 49809U 21116A   24352.46334549 -.00000091  00000+0  00000+0 0  9994
2 49809  57.2871 356.4276 0004262 248.2271 215.2951  1.70475827 18864
GSAT0224 (GALILEO 28)   
1 49810U 21116B   24350.40136845 -.00000088  00000+0  00000+0 0  9993
2 49810  57.2880 356.4819 0003598 249.3307 141.2449  1.70475766 18842
GOES 18                 
1 51850U 22021A   24350.92587427  .00000104  00000+0  00000+0 0  9997
2 51850   0.0085 106.1825 0000838 191.9314 343.2730  1.00273503 10301
COSMOS 2557 (706K)      
1 52984U 22075A   24352.88926473 -.00000067  00000+0  00000+0 0  9999
2 52984  64.5954 333.6685 0014064 279.3340  80.5045  2.13101897 19060
METEOR-M2 3             
1 57166U 23091A   24353.14741573  .00000094  00000+0  59961-4 0  9995
2 57166  98.6891  45.9439 0003290 329.9508  30.1481 14.23961110 76808
COSMOS 2569 (703K)      
1 57517U 23114A   24353.03866404 -.00000012  00000+0  00000+0 0  9996
2 57517  65.0034  91.0834 0010291 289.1989  70.6997  2.13104107 10625
METEOR-M2 4             
1 59051U 24039A   24353.17033961  .00000116  00000+0  71836-4 0  9991
2 59051  98.6254 310.7768 0006353 318.8410  41.2289 14.22314375 41643
GSAT0225 (GALILEO 29)   
1 59598U 24079A   24351.55354777 -.00000002  00000+0  00000+0 0  9997
2 59598  54.7966 116.4040 0002674 186.3059 182.5117  1.70474725  3962
GSAT0227 (GALILEO 30)   
1 59600U 24079C   24349.37609701  .00000001  00000+0  00000+0 0  9996
2 59600  54.7905 116.4657 0003252 123.3588 236.6176  1.70474745  3995
GSAT0232 (GALILEO 32)   
1 61182U 24167A   24352.86220164  .00000019  00000+0  00000+0 0  9991
2 61182  55.3716 236.3051 0001746 202.9400 332.1842  1.70473405  1568
GSAT0226 (GALILEO 31)   
1 61183U 24167B   24352.68547578  .00000020  00000+0  00000+0 0  9995
2 61183  55.3709 236.3154 0001131 103.7448  75.4474  1.70473359  1536
